[{"OBJECT_NAME":"STARLINK-5861","OBJECT_ID":"2023-037H","EPOCH":"2026-03-09T22:11:41.498304","MEAN_MOTION":14.98330597,"ECCENTRICITY":0.00018361,"INCLINATION":69.9989,"RA_OF_ASC_NODE":303.8136,"ARG_OF_PERICENTER":272.3299,"MEAN_ANOMALY":87.765,"EPHEMERIS_TYPE":0,"CLASSIFICATION_TYPE":"U","NORAD_CAT_ID":55921,"ELEMENT_SET_NO":999,"REV_AT_EPOCH":16352,"BSTAR":-1.3230461e-5,"MEAN_MOTION_DOT":-2.51e-6,"MEAN_MOTION_DDOT":0},{"OBJECT_NAME":"UNKNOWN","OBJECT_ID":"","EPOCH":"2026-03-08T12:59:39.172704","MEAN_MOTION":15.0131728,"ECCENTRICITY":0.00204305,"INCLINATION":86.3534,"RA_OF_ASC_NODE":358.469,"ARG_OF_PERICENTER":121.5673,"MEAN_ANOMALY":238.7558,"EPHEMERIS_TYPE":0,"CLASSIFICATION_TYPE":"U","NORAD_CAT_ID":270086,"ELEMENT_SET_NO":999,"REV_AT_EPOCH":9441,"BSTAR":0.0053525659,"MEAN_MOTION_DOT":0.00069778,"MEAN_MOTION_DDOT":0}]
